{"spkid": "50838147", "covariance": {"data": [["1.533947045811308E-12", "-1.697968474971832E-12", "-1.961250914626352E-10", "1.336819970621494E-11", "-2.956740044448737E-10", "1.33557517850115E-10"], ["-1.697968474971832E-12", "1.879608287195906E-12", "2.219869775773243E-10", "-1.493308940397888E-11", "3.308672128921231E-10", "-1.494306323735781E-10"], ["-1.961250914626352E-10", "2.219869775773243E-10", "3.414272840450961E-7", "-1.045194733689292E-8", "2.692848703874866E-7", "-1.190852629155658E-7"], ["1.336819970621494E-11", "-1.493308940397888E-11", "-1.045194733689292E-8", "4.611882252071474E-10", "-9.070822571785988E-9", "3.834773330069981E-9"], ["-2.956740044448737E-10", "3.308672128921231E-10", "2.692848703874866E-7", "-9.070822571785988E-9", "2.2647140337715E-7", "-1.002271762931453E-7"], ["1.33557517850115E-10", "-1.494306323735781E-10", "-1.190852629155658E-7", "3.834773330069981E-9", "-1.002271762931453E-7", "4.565342932821586E-8"]], "elements": [{"name": "e", "sigma": 1.23852615871095e-06, "units": null, "title": "eccentricity", "value": ".1466194896587992", "label": "e"}, {"label": "q", "value": ".9452430465743566", "title": "perihelion distance", "units": "au", "name": "q", "sigma": 1.37098806967672e-06}, {"label": "tp", "name": "tp", "sigma": 0.000584317793709122, "units": "TDB", "title": "time of perihelion passage", "value": "2459672.525683350806"}, {"label": "node", "units": "deg", "title": "longitude of the ascending node", "value": "319.2220730471035", "sigma": 2.14752933671963e-05, "name": "om"}, {"units": "deg", "value": "58.3922382412805", "title": "argument of perihelion", "sigma": 0.000475890116914766, "name": "w", "label": "peri"}, {"label": "i", "title": "inclination", "value": "17.92327320227638", "units": "deg", "name": "i", "sigma": 0.000213666631293274}], "labels": ["e", "q", "tp", "node", "peri", "i"], "epoch": "2459807.5"}, "elements": [{"label": "e", "name": "e", "sigma": "1.2008E-6", "title": "eccentricity", "value": ".1460836781212141", "units": null}, {"name": "a", "sigma": "8.8209E-8", "value": "1.106587729493555", "title": "semi-major axis", "units": "au", "label": "a"}, {"title": "perihelion distance", "value": ".9449333238053337", "units": "au", "name": "q", "sigma": "1.3727E-6", "label": "q"}, {"name": "i", "sigma": ".00021364", "title": "inclination; angle with respect to x-y ecliptic plane", "value": "17.93145728274209", "units": "deg", "label": "i"}, {"label": "node", "units": "deg", "value": "319.1857741093702", "title": "longitude of the ascending node", "sigma": "2.2111E-5", "name": "om"}, {"label": "peri", "units": "deg", "value": "58.61285174354634", "title": "argument of perihelion", "name": "w", "sigma": ".00049141"}, {"title": "mean anomaly", "value": "212.0280188554027", "units": "deg", "name": "ma", "sigma": ".00050642", "label": "M"}, {"label": "tp", "sigma": ".00058556", "name": "tp", "units": "TDB", "title": "time of perihelion passage", "value": "2461375.264890758265"}, {"label": "period", "value": "425.184282769689", "title": "sidereal orbital period", "units": "d", "sigma": "5.0839E-5", "name": "per"}, {"title": "mean motion", "value": ".8466916924937283", "units": "deg/d", "sigma": "1.0124E-7", "name": "n", "label": "n"}, {"sigma": "1.011E-7", "name": "ad", "units": "au", "value": "1.268242135181777", "title": "aphelion distance", "label": "Q"}], "epoch": "2461200.5"}